[{"OBJECT_NAME":"BEIDOU-2 IGSO-1 (C06)","OBJECT_ID":"2010-036A","EPOCH":"2026-03-14T16:18:58.418784","MEAN_MOTION":1.00250102,"ECCENTRICITY":0.00545782,"INCLINATION":54.2922,"RA_OF_ASC_NODE":163.818,"ARG_OF_PERICENTER":219.4923,"MEAN_ANOMALY":137.9589,"EPHEMERIS_TYPE":0,"CLASSIFICATION_TYPE":"U","NORAD_CAT_ID":36828,"ELEMENT_SET_NO":999,"REV_AT_EPOCH":5714,"BSTAR":0,"MEAN_MOTION_DOT":-1.42e-6,"MEAN_MOTION_DDOT":0},{"OBJECT_NAME":"BEIDOU-2 G4 (C04)","OBJECT_ID":"2010-057A","EPOCH":"2026-03-15T05:53:19.491072","MEAN_MOTION":1.002725,"ECCENTRICITY":0.00080935,"INCLINATION":3.4121,"RA_OF_ASC_NODE":69.4786,"ARG_OF_PERICENTER":213.4177,"MEAN_ANOMALY":138.3151,"EPHEMERIS_TYPE":0,"CLASSIFICATION_TYPE":"U","NORAD_CAT_ID":37210,"ELEMENT_SET_NO":999,"REV_AT_EPOCH":5634,"BSTAR":0,"MEAN_MOTION_DOT":-1.11e-6,"MEAN_MOTION_DDOT":0},{"OBJECT_NAME":"BEIDOU-2 IGSO-2 (C07)","OBJECT_ID":"2010-068A","EPOCH":"2026-03-10T11:51:55.860192","MEAN_MOTION":1.00257833,"ECCENTRICITY":0.00474909,"INCLINATION":47.7215,"RA_OF_ASC_NODE":273.0501,"ARG_OF_PERICENTER":213.2827,"MEAN_ANOMALY":326.5355,"EPHEMERIS_TYPE":0,"CLASSIFICATION_TYPE":"U","NORAD_CAT_ID":37256,"ELEMENT_SET_NO":999,"REV_AT_EPOCH":5580,"BSTAR":0,"MEAN_MOTION_DOT":-1.57e-6,"MEAN_MOTION_DDOT":0},{"OBJECT_NAME":"BEIDOU-2 IGSO-3 (C08)","OBJECT_ID":"2011-013A","EPOCH":"2026-03-14T20:22:21.599040","MEAN_MOTION":1.0029112,"ECCENTRICITY":0.00347746,"INCLINATION":62.285,"RA_OF_ASC_NODE":41.0424,"ARG_OF_PERICENTER":190.0864,"MEAN_ANOMALY":353.6522,"EPHEMERIS_TYPE":0,"CLASSIFICATION_TYPE":"U","NORAD_CAT_ID":37384,"ELEMENT_SET_NO":999,"REV_AT_EPOCH":5471,"BSTAR":0,"MEAN_MOTION_DOT":-1.47e-6,"MEAN_MOTION_DDOT":0},{"OBJECT_NAME":"BEIDOU-2 IGSO-4 (C09)","OBJECT_ID":"2011-038A","EPOCH":"2026-03-14T18:26:31.756704","MEAN_MOTION":1.00264319,"ECCENTRICITY":0.01553681,"INCLINATION":54.589,"RA_OF_ASC_NODE":166.5285,"ARG_OF_PERICENTER":231.0457,"MEAN_ANOMALY":145.5369,"EPHEMERIS_TYPE":0,"CLASSIFICATION_TYPE":"U","NORAD_CAT_ID":37763,"ELEMENT_SET_NO":999,"REV_AT_EPOCH":5370,"BSTAR":0,"MEAN_MOTION_DOT":-9.4e-7,"MEAN_MOTION_DDOT":0},{"OBJECT_NAME":"BEIDOU-2 IGSO-5 (C10)","OBJECT_ID":"2011-073A","EPOCH":"2026-03-15T00:21:59.353920","MEAN_MOTION":1.00270273,"ECCENTRICITY":0.01089395,"INCLINATION":47.8502,"RA_OF_ASC_NODE":272.708,"ARG_OF_PERICENTER":221.0218,"MEAN_ANOMALY":139.4295,"EPHEMERIS_TYPE":0,"CLASSIFICATION_TYPE":"U","NORAD_CAT_ID":37948,"ELEMENT_SET_NO":999,"REV_AT_EPOCH":5219,"BSTAR":0,"MEAN_MOTION_DOT":-9.1e-7,"MEAN_MOTION_DDOT":0},{"OBJECT_NAME":"BEIDOU-2 G5 (C05)","OBJECT_ID":"2012-008A","EPOCH":"2026-03-15T05:19:30.821664","MEAN_MOTION":1.00270166,"ECCENTRICITY":0.0013652,"INCLINATION":3.3378,"RA_OF_ASC_NODE":70.2407,"ARG_OF_PERICENTER":257.4109,"MEAN_ANOMALY":343.7829,"EPHEMERIS_TYPE":0,"CLASSIFICATION_TYPE":"U","NORAD_CAT_ID":38091,"ELEMENT_SET_NO":999,"REV_AT_EPOCH":5142,"BSTAR":0,"MEAN_MOTION_DOT":5.8e-7,"MEAN_MOTION_DDOT":0},{"OBJECT_NAME":"BEIDOU-2 M3 (C11)","OBJECT_ID":"2012-018A","EPOCH":"2026-03-14T03:31:59.670624","MEAN_MOTION":1.86230226,"ECCENTRICITY":0.0021028,"INCLINATION":55.8387,"RA_OF_ASC_NODE":308.0798,"ARG_OF_PERICENTER":279.8412,"MEAN_ANOMALY":79.9804,"EPHEMERIS_TYPE":0,"CLASSIFICATION_TYPE":"U","NORAD_CAT_ID":38250,"ELEMENT_SET_NO":999,"REV_AT_EPOCH":9417,"BSTAR":0,"MEAN_MOTION_DOT":-2.5e-7,"MEAN_MOTION_DDOT":0},{"OBJECT_NAME":"BEIDOU-2 M4 (C12)","OBJECT_ID":"2012-018B","EPOCH":"2026-03-13T00:07:52.462848","MEAN_MOTION":1.86229915,"ECCENTRICITY":0.00121917,"INCLINATION":55.7402,"RA_OF_ASC_NODE":307.3399,"ARG_OF_PERICENTER":287.4004,"MEAN_ANOMALY":72.522,"EPHEMERIS_TYPE":0,"CLASSIFICATION_TYPE":"U","NORAD_CAT_ID":38251,"ELEMENT_SET_NO":999,"REV_AT_EPOCH":9415,"BSTAR":0,"MEAN_MOTION_DOT":-3.1e-7,"MEAN_MOTION_DDOT":0},{"OBJECT_NAME":"BEIDOU-2 M6 (C14)","OBJECT_ID":"2012-050B","EPOCH":"2026-03-14T07:50:08.083680","MEAN_MOTION":1.86231068,"ECCENTRICITY":0.00141649,"INCLINATION":56.4625,"RA_OF_ASC_NODE":66.0292,"ARG_OF_PERICENTER":342.6932,"MEAN_ANOMALY":17.2813,"EPHEMERIS_TYPE":0,"CLASSIFICATION_TYPE":"U","NORAD_CAT_ID":38775,"ELEMENT_SET_NO":999,"REV_AT_EPOCH":9154,"BSTAR":0,"MEAN_MOTION_DOT":1.9e-7,"MEAN_MOTION_DDOT":0},{"OBJECT_NAME":"BEIDOU-2 G6 (C02)","OBJECT_ID":"2012-059A","EPOCH":"2026-03-15T02:01:19.828128","MEAN_MOTION":1.00275751,"ECCENTRICITY":0.00105677,"INCLINATION":4.1815,"RA_OF_ASC_NODE":74.5255,"ARG_OF_PERICENTER":306.7162,"MEAN_ANOMALY":265.7371,"EPHEMERIS_TYPE":0,"CLASSIFICATION_TYPE":"U","NORAD_CAT_ID":38953,"ELEMENT_SET_NO":999,"REV_AT_EPOCH":4896,"BSTAR":0,"MEAN_MOTION_DOT":-1.74e-6,"MEAN_MOTION_DDOT":0},{"OBJECT_NAME":"BEIDOU-3S IGSO-1S (C31)","OBJECT_ID":"2015-019A","EPOCH":"2026-03-14T14:05:47.517792","MEAN_MOTION":1.00271852,"ECCENTRICITY":0.00357397,"INCLINATION":49.372,"RA_OF_ASC_NODE":296.6012,"ARG_OF_PERICENTER":190.1845,"MEAN_ANOMALY":353.2607,"EPHEMERIS_TYPE":0,"CLASSIFICATION_TYPE":"U","NORAD_CAT_ID":40549,"ELEMENT_SET_NO":999,"REV_AT_EPOCH":4012,"BSTAR":0,"MEAN_MOTION_DOT":-1.37e-6,"MEAN_MOTION_DDOT":0},{"OBJECT_NAME":"BEIDOU-3S M2S (C58)","OBJECT_ID":"2015-037A","EPOCH":"2026-03-14T19:41:08.522592","MEAN_MOTION":1.86232296,"ECCENTRICITY":0.00085298,"INCLINATION":54.9537,"RA_OF_ASC_NODE":305.2964,"ARG_OF_PERICENTER":278.6082,"MEAN_ANOMALY":81.3544,"EPHEMERIS_TYPE":0,"CLASSIFICATION_TYPE":"U","NORAD_CAT_ID":40748,"ELEMENT_SET_NO":999,"REV_AT_EPOCH":7236,"BSTAR":0,"MEAN_MOTION_DOT":-1.8e-7,"MEAN_MOTION_DDOT":0},{"OBJECT_NAME":"BEIDOU-3S M1S (C57)","OBJECT_ID":"2015-037B","EPOCH":"2026-03-15T00:56:27.744864","MEAN_MOTION":1.86254832,"ECCENTRICITY":0.00046824,"INCLINATION":54.9501,"RA_OF_ASC_NODE":305.2769,"ARG_OF_PERICENTER":36.1648,"MEAN_ANOMALY":323.9265,"EPHEMERIS_TYPE":0,"CLASSIFICATION_TYPE":"U","NORAD_CAT_ID":40749,"ELEMENT_SET_NO":999,"REV_AT_EPOCH":7237,"BSTAR":0,"MEAN_MOTION_DOT":-1.7e-7,"MEAN_MOTION_DDOT":0},{"OBJECT_NAME":"BEIDOU-2 IGSO-6 (C13)","OBJECT_ID":"2016-021A","EPOCH":"2026-03-14T20:56:11.588640","MEAN_MOTION":1.00276688,"ECCENTRICITY":0.00593494,"INCLINATION":60.1011,"RA_OF_ASC_NODE":38.976,"ARG_OF_PERICENTER":233.2646,"MEAN_ANOMALY":310.0546,"EPHEMERIS_TYPE":0,"CLASSIFICATION_TYPE":"U","NORAD_CAT_ID":41434,"ELEMENT_SET_NO":999,"REV_AT_EPOCH":3653,"BSTAR":0,"MEAN_MOTION_DOT":-1.28e-6,"MEAN_MOTION_DDOT":0},{"OBJECT_NAME":"BEIDOU-2 G7 (C03)","OBJECT_ID":"2016-037A","EPOCH":"2026-03-15T02:08:41.621568","MEAN_MOTION":1.00275181,"ECCENTRICITY":0.00076361,"INCLINATION":1.4861,"RA_OF_ASC_NODE":68.3228,"ARG_OF_PERICENTER":346.6372,"MEAN_ANOMALY":260.4575,"EPHEMERIS_TYPE":0,"CLASSIFICATION_TYPE":"U","NORAD_CAT_ID":41586,"ELEMENT_SET_NO":999,"REV_AT_EPOCH":594,"BSTAR":0,"MEAN_MOTION_DOT":-3.53e-6,"MEAN_MOTION_DDOT":0},{"OBJECT_NAME":"BEIDOU-3 M1 (C19)","OBJECT_ID":"2017-069A","EPOCH":"2026-03-13T00:25:55.144704","MEAN_MOTION":1.86231473,"ECCENTRICITY":0.00125104,"INCLINATION":56.6089,"RA_OF_ASC_NODE":66.2503,"ARG_OF_PERICENTER":309.879,"MEAN_ANOMALY":50.0328,"EPHEMERIS_TYPE":0,"CLASSIFICATION_TYPE":"U","NORAD_CAT_ID":43001,"ELEMENT_SET_NO":999,"REV_AT_EPOCH":5681,"BSTAR":0,"MEAN_MOTION_DOT":1.1e-7,"MEAN_MOTION_DDOT":0}]
